OBJECT_NAME,OBJECT_ID,EPOCH,MEAN_MOTION,ECCENTRICITY,INCLINATION,RA_OF_ASC_NODE,ARG_OF_PERICENTER,MEAN_ANOMALY,EPHEMERIS_TYPE,CLASSIFICATION_TYPE,NORAD_CAT_ID,ELEMENT_SET_NO,REV_AT_EPOCH,BSTAR,MEAN_MOTION_DOT,MEAN_MOTION_DDOT
FORMOSAT 7-3,2019-036E,2026-06-08T12:37:28.716384,15.09744700,.0000988,23.9986,238.1524,142.8578,217.1994,0,U,44343,999,38193,.25069E-3,.4498E-4,0
FORMOSAT 7-1,2019-036L,2026-06-08T12:17:26.049120,14.96468749,.0001027,23.9979,90.8744,83.6947,276.3670,0,U,44349,999,38335,.21437E-3,.2796E-4,0
FORMOSAT 7-4,2019-036M,2026-06-07T08:01:24.720960,14.96458618,.00015233,23.9967,160.9233,83.3436,276.7238,0,U,44350,999,38259,.21930605E-3,.2853E-4,0
FORMOSAT 7-2,2019-036N,2026-06-08T19:46:00.202080,14.96467386,.0001043,23.9972,205.2011,91.6174,268.4446,0,U,44351,999,38233,.17722E-3,.2364E-4,0
FORMOSAT 7-6,2019-036Q,2026-06-07T22:57:30.820608,14.96471289,.00010317,23.9992,31.8567,7.5809,352.4708,0,U,44353,999,38043,.24162166E-3,.3113E-4,0
FORMOSAT 7-5,2019-036V,2026-06-08T19:13:03.109152,14.96483158,.0000698,24.0001,324.9190,78.7849,281.2730,0,U,44358,999,38109,.23733E-3,.3064E-4,0
METEOR-M2 2,2019-038A,2026-06-08T19:33:47.073888,14.24363055,.0002305,98.9147,146.9772,60.5994,299.5414,0,U,44387,999,36010,.11713E-4,-.19E-6,0
GLOBAL-4,2019-054E,2026-06-08T18:35:41.678880,15.63598632,.0006491,45.0064,284.9141,288.2171,71.8019,0,U,44499,999,37904,.58059E-3,.55342E-3,0
ZY-1 02D,2019-059A,2026-06-08T20:15:39.020832,14.35457109,.0002197,98.3187,221.6244,118.4765,241.6643,0,U,44528,999,35314,.36795E-4,.64E-6,0
TAURUS-1 (JINNIUZUO 1),2019-059C,2026-06-08T19:32:25.013760,14.72009894,.0007815,98.6418,324.1240,345.7341,14.3643,0,U,44530,999,35741,.82032E-3,.5099E-4,0
ZHUHAI-1 03B,2019-060C,2026-06-08T19:28:43.447008,15.53625704,.0007823,97.5522,317.1285,352.3840,7.7293,0,U,44536,999,37502,.47421E-3,.30247E-3,0
ZHUHAI-1 03D,2019-060E,2026-06-08T19:53:09.593664,15.49279923,.0006856,97.5383,309.3412,335.3788,24.7135,0,U,44538,999,37478,.5595E-3,.30577E-3,0
ZHUHAI-1 03E,2019-060F,2026-06-08T19:14:21.455808,15.40796499,.0006546,97.5603,309.4608,60.7131,299.4769,0,U,44539,999,37447,.42382E-3,.173E-3,0
GAOFEN-7,2019-072A,2026-06-08T20:19:17.612832,15.21539406,.0017992,97.2431,221.6266,67.9847,292.3299,0,U,44703,999,36637,.20349E-3,.4536E-4,0
JILIN-1 GAOFEN 2A,2019-075A,2026-06-08T19:31:45.842592,15.39091494,.0007624,97.4961,243.4096,111.7640,248.4417,0,U,44777,999,36359,.35531E-3,.13696E-3,0
NINGXIA-1 1,2019-076A,2026-06-08T20:15:57.337632,14.02037476,.0010208,45.0042,217.1353,122.0311,238.1516,0,U,44779,999,33668,.11072E-4,-.113E-5,0
NINGXIA-1 5,2019-076E,2026-06-08T20:35:30.408576,14.02085182,.0009833,45.0042,216.4189,110.6795,249.5094,0,U,44783,999,33660,-.56077E-5,-.139E-5,0
KL-ALPHA A,2019-077A,2026-06-08T20:32:34.759968,13.56042386,.0012844,88.9252,223.4754,126.5481,233.6857,0,U,44785,999,32460,.29655E-4,.33E-6,0
CARTOSAT-3,2019-081A,2026-06-08T20:36:12.502656,15.19219256,.0012323,97.4303,221.8595,176.3859,183.7467,0,U,44804,999,36220,.11586E-3,.2375E-4,0
JILIN-1 GAOFEN 2B,2019-086A,2026-06-08T18:58:00.711264,15.20621391,.0013591,97.4881,231.8344,355.4571,4.6538,0,U,44836,999,35921,.28595E-3,.6217E-4,0
TIANQIN 1 (CAS-6),2019-093A,2026-06-08T20:36:59.889600,14.95399845,.0012934,97.7805,243.7595,82.5301,277.7389,0,U,44879,999,35080,.21859E-3,.236E-4,0
ETRSS-1,2019-093B,2026-06-08T20:50:14.640864,14.95826051,.0013009,97.7822,244.2213,82.1267,278.1430,0,U,44880,999,35081,.22656E-3,.2475E-4,0
TIANYAN 01,2019-093C,2026-06-08T19:58:54.429024,14.86507943,.0014936,97.7527,232.2681,111.5887,248.6922,0,U,44881,999,35017,.15202E-3,.1294E-4,0
TIANYAN 02,2019-093D,2026-06-08T19:25:55.489728,15.05126540,.001446,97.7926,254.5199,55.5046,304.7543,0,U,44882,999,35135,.54284E-3,.7686E-4,0
CBERS 4A,2019-093E,2026-06-08T20:24:22.925376,14.81623585,.0001377,97.7494,227.3525,151.2299,208.8990,0,U,44883,999,34984,.75638E-4,.544E-5,0
WEILAI 1R,2019-093F,2026-06-08T20:28:04.752192,15.00571879,.0017876,97.7839,249.7270,61.2185,299.0831,0,U,44884,999,35117,.28539E-3,.3553E-4,0
FLORIPASAT-1,2019-093G,2026-06-08T20:11:58.199712,15.03793040,.0013557,97.7915,254.0125,97.2459,263.0308,0,U,44885,999,35139,.37634E-3,.5119E-4,0
SHUNTIAN,2019-093H,2026-06-08T20:13:09.706944,14.95114570,.0012956,97.7993,248.0460,93.3245,266.9458,0,U,44886,999,35093,.23519E-3,.2525E-4,0
