FORMOSAT 7-3            
1 44343U 19036E   26159.52602681  .00004498  00000+0  25069-3 0  9999
2 44343  23.9986 238.1524 0000987 142.8578 217.1994 15.09744700381935
FORMOSAT 7-1            
1 44349U 19036L   26159.51210706  .00002796  00000+0  21437-3 0  9991
2 44349  23.9979  90.8744 0001026  83.6947 276.3670 14.96468749383354
FORMOSAT 7-4            
1 44350U 19036M   26158.33431390  .00002853  00000+0  21931-3 0  9999
2 44350  23.9967 160.9233 0001523  83.3436 276.7238 14.96458618382590
FORMOSAT 7-2            
1 44351U 19036N   26159.82361345  .00002364  00000+0  17722-3 0  9997
2 44351  23.9972 205.2011 0001043  91.6174 268.4446 14.96467386382335
FORMOSAT 7-6            
1 44353U 19036Q   26158.95660672  .00003113  00000+0  24162-3 0  9996
2 44353  23.9992  31.8567 0001031   7.5809 352.4708 14.96471289380437
FORMOSAT 7-5            
1 44358U 19036V   26159.80073043  .00003064  00000+0  23733-3 0  9994
2 44358  24.0001 324.9190 0000698  78.7849 281.2730 14.96483158381090
METEOR-M2 2             
1 44387U 19038A   26159.81512817 -.00000019  00000+0  11713-4 0  9990
2 44387  98.9147 146.9772 0002305  60.5994 299.5414 14.24363055360102
GLOBAL-4                
1 44499U 19054E   26159.77478795  .00055342  00000+0  58059-3 0  9994
2 44499  45.0064 284.9141 0006491 288.2171  71.8019 15.63598632379046
ZY-1 02D                
1 44528U 19059A   26159.84420163  .00000064  00000+0  36795-4 0  9991
2 44528  98.3187 221.6244 0002197 118.4765 241.6643 14.35457109353144
TAURUS-1 (JINNIUZUO 1)  
1 44530U 19059C   26159.81417840  .00005099  00000+0  82032-3 0  9996
2 44530  98.6418 324.1240 0007815 345.7341  14.3643 14.72009894357413
ZHUHAI-1 03B            
1 44536U 19060C   26159.81161397  .00030247  00000+0  47421-3 0  9993
2 44536  97.5522 317.1285 0007823 352.3840   7.7293 15.53625704375029
ZHUHAI-1 03D            
1 44538U 19060E   26159.82858326  .00030577  00000+0  55950-3 0  9993
2 44538  97.5383 309.3412 0006856 335.3788  24.7135 15.49279923374787
ZHUHAI-1 03E            
1 44539U 19060F   26159.80163722  .00017300  00000+0  42382-3 0  9995
2 44539  97.5603 309.4608 0006546  60.7131 299.4769 15.40796499374471
GAOFEN-7                
1 44703U 19072A   26159.84673163  .00004536  00000+0  20349-3 0  9996
2 44703  97.2431 221.6266 0017992  67.9847 292.3299 15.21539406366377
JILIN-1 GAOFEN 2A       
1 44777U 19075A   26159.81372503  .00013696  00000+0  35531-3 0  9997
2 44777  97.4961 243.4096 0007624 111.7640 248.4417 15.39091494363595
NINGXIA-1 1             
1 44779U 19076A   26159.84441363 -.00000113  00000+0  11072-4 0  9990
2 44779  45.0042 217.1353 0010208 122.0311 238.1516 14.02037476336687
NINGXIA-1 5             
1 44783U 19076E   26159.85799084 -.00000139  00000+0 -56077-5 0  9996
2 44783  45.0042 216.4189 0009833 110.6795 249.5094 14.02085182336608
KL-ALPHA A              
1 44785U 19077A   26159.85595787  .00000033  00000+0  29655-4 0  9995
2 44785  88.9252 223.4754 0012844 126.5481 233.6857 13.56042386324604
CARTOSAT-3              
1 44804U 19081A   26159.85847804  .00002375  00000+0  11586-3 0  9996
2 44804  97.4303 221.8595 0012323 176.3859 183.7467 15.19219256362200
JILIN-1 GAOFEN 2B       
1 44836U 19086A   26159.79028601  .00006217  00000+0  28595-3 0  9992
2 44836  97.4881 231.8344 0013591 355.4571   4.6538 15.20621391359214
TIANQIN 1 (CAS-6)       
1 44879U 19093A   26159.85902650  .00002360  00000+0  21859-3 0  9990
2 44879  97.7805 243.7595 0012934  82.5301 277.7389 14.95399845350809
ETRSS-1                 
1 44880U 19093B   26159.86822501  .00002475  00000+0  22656-3 0  9992
2 44880  97.7822 244.2213 0013009  82.1267 278.1430 14.95826051350811
TIANYAN 01              
1 44881U 19093C   26159.83257441  .00001294  00000+0  15202-3 0  9992
2 44881  97.7527 232.2681 0014936 111.5887 248.6922 14.86507943350178
TIANYAN 02              
1 44882U 19093D   26159.80967002  .00007686  00000+0  54284-3 0  9995
2 44882  97.7926 254.5199 0014460  55.5046 304.7543 15.05126540351355
CBERS 4A                
1 44883U 19093E   26159.85026534  .00000544  00000+0  75638-4 0  9990
2 44883  97.7494 227.3525 0001377 151.2299 208.8990 14.81623585349849
WEILAI 1R               
1 44884U 19093F   26159.85283278  .00003553  00000+0  28539-3 0  9991
2 44884  97.7839 249.7270 0017876  61.2185 299.0831 15.00571879351178
FLORIPASAT-1            
1 44885U 19093G   26159.84164583  .00005119  00000+0  37634-3 0  9994
2 44885  97.7915 254.0125 0013557  97.2459 263.0308 15.03793040351390
SHUNTIAN                
1 44886U 19093H   26159.84247346  .00002525  00000+0  23519-3 0  9999
2 44886  97.7993 248.0460 0012956  93.3245 266.9458 14.95114570350936
